$$SOE
2461302.500000000, A.D. 2026-Sep-19 00:00:00.0000, -3.600110101670494E+08, -1.279201586502299E+07, 3.330788746230532E+07,
2461309.500000000, A.D. 2026-Sep-26 00:00:00.0000, -3.577629533027095E+08, -2.370247639750906E+07, 3.315701101172239E+07,
2461316.500000000, A.D. 2026-Oct-03 00:00:00.0000, -3.551429125827693E+08, -3.458821031719138E+07, 3.297165540115707E+07,
2461323.500000000, A.D. 2026-Oct-10 00:00:00.0000, -3.521482287761603E+08, -4.543737851068093E+07, 3.275151372540908E+07,
2461330.500000000, A.D. 2026-Oct-17 00:00:00.0000, -3.487765080159265E+08, -5.623782322512477E+07, 3.249630193693689E+07,
2461337.500000000, A.D. 2026-Oct-24 00:00:00.0000, -3.450256429443217E+08, -6.697706244316982E+07, 3.220576076091227E+07,
2461344.500000000, A.D. 2026-Oct-31 00:00:00.0000, -3.408938352578918E+08, -7.764228517000318E+07, 3.187965772957759E+07,
2461351.500000000, A.D. 2026-Nov-07 00:00:00.0000, -3.363796193645202E+08, -8.822034769598787E+07, 3.151778931645906E+07,
2461358.500000000, A.D. 2026-Nov-14 00:00:00.0000, -3.314818869964359E+08, -9.869777009933574E+07, 3.111998322966914E+07,
2461365.500000000, A.D. 2026-Nov-21 00:00:00.0000, -3.261999146276442E+08, -1.090607324747620E+08, 3.068610109058081E+07,
2461372.500000000, A.D. 2026-Nov-28 00:00:00.0000, -3.205333947234481E+08, -1.192950740822237E+08, 3.021604134734349E+07,
2461379.500000000, A.D. 2026-Dec-05 00:00:00.0000, -3.144824672247245E+08, -1.293862962745933E+08, 2.970974204108470E+07,
2461386.500000000, A.D. 2026-Dec-12 00:00:00.0000, -3.080477511078436E+08, -1.393195663090225E+08, 2.916718366623488E+07,
2461393.500000000, A.D. 2026-Dec-19 00:00:00.0000, -3.012303778904693E+08, -1.490797222681593E+08, 2.858839229858191E+07,
2461400.500000000, A.D. 2026-Dec-26 00:00:00.0000, -2.940320271881149E+08, -1.586512802136835E+08, 2.797344293089905E+07,
2461407.500000000, A.D. 2027-Jan-02 00:00:00.0000, -2.864549639891856E+08, -1.680184440374432E+08, 2.732246297135424E+07,
2461414.500000000, A.D. 2027-Jan-09 00:00:00.0000, -2.785020774502623E+08, -1.771651182794932E+08, 2.663563588979391E+07,
2461421.500000000, A.D. 2027-Jan-16 00:00:00.0000, -2.701769210624192E+08, -1.860749242076003E+08, 2.591320500062528E+07,
2461428.500000000, A.D. 2027-Jan-23 00:00:00.0000, -2.614837539917386E+08, -1.947312195151487E+08, 2.515547736260016E+07,
2461435.500000000, A.D. 2027-Jan-30 00:00:00.0000, -2.524275832152762E+08, -2.031171220143141E+08, 2.436282775842008E+07,
2461442.500000000, A.D. 2027-Feb-06 00:00:00.0000, -2.430142057925888E+08, -2.112155373208389E+08, 2.353570272300706E+07,
2461449.500000000, A.D. 2027-Feb-13 00:00:00.0000, -2.332502514482721E+08, -2.190091896474058E+08, 2.267462473768010E+07,
2461456.500000000, A.D. 2027-Feb-20 00:00:00.0000, -2.231432274874421E+08, -2.264806568259262E+08, 2.178019671204958E+07,
2461463.500000000, A.D. 2027-Feb-27 00:00:00.0000, -2.127015642433197E+08, -2.336124130891704E+08, 2.085310632628708E+07,
2461470.500000000, A.D. 2027-Mar-06 00:00:00.0000, -2.019346575653536E+08, -2.403868779873261E+08, 1.989413007095745E+07,
2461477.500000000, A.D. 2027-Mar-13 00:00:00.0000, -1.908529094011037E+08, -2.467864696640085E+08, 1.890413724905513E+07,
2461484.500000000, A.D. 2027-Mar-20 00:00:00.0000, -1.794677669857908E+08, -2.527936635707208E+08, 1.788409392018999E+07,
2461491.500000000, A.D. 2027-Mar-27 00:00:00.0000, -1.677917597602136E+08, -2.583910573681427E+08, 1.683506666252194E+07,
2461498.500000000, A.D. 2027-Apr-03 00:00:00.0000, -1.558385330743286E+08, -2.635614421964287E+08, 1.575822606264287E+07,
2461505.500000000, A.D. 2027-Apr-10 00:00:00.0000, -1.436228778109466E+08, -2.682878803430291E+08, 1.465484985589202E+07,
2461512.500000000, A.D. 2027-Apr-17 00:00:00.0000, -1.311607550396950E+08, -2.725537892746558E+08, 1.352632563375443E+07,
2461519.500000000, A.D. 2027-Apr-24 00:00:00.0000, -1.184693146967095E+08, -2.763430319347535E+08, 1.237415301981969E+07,
2461526.500000000, A.D. 2027-May-01 00:00:00.0000, -1.055669070204898E+08, -2.796400129922005E+08, 1.119994519807518E+07,
2461533.500000000, A.D. 2027-May-08 00:00:00.0000, -9.247308544001789E+07, -2.824297798664793E+08, 1.000542973236506E+07,
2461540.500000000, A.D. 2027-May-15 00:00:00.0000, -7.920860140905395E+07, -2.846981269936680E+08, 8.792448796643391E+06,
2461547.500000000, A.D. 2027-May-22 00:00:00.0000, -6.579539176295737E+07, -2.864317051745002E+08, 7.562958652383178E+06,
2461554.500000000, A.D. 2027-May-29 00:00:00.0000, -5.225655429880253E+07, -2.876181365505202E+08, 6.319027853182793E+06,
2461561.500000000, A.D. 2027-Jun-05 00:00:00.0000, -3.861630982890536E+07, -2.882461309763273E+08, 5.062834265358016E+06,
2461568.500000000, A.D. 2027-Jun-12 00:00:00.0000, -2.489995196010416E+07, -2.883056020706074E+08, 3.796661046516865E+06,
2461575.500000000, A.D. 2027-Jun-19 00:00:00.0000, -1.113378431727637E+07, -2.877877824150360E+08, 2.522891470428675E+06,
2461582.500000000, A.D. 2027-Jun-26 00:00:00.0000, 2.654955503612326E+06, -2.866853365297263E+08, 1.244002501311049E+06,
2461589.500000000, A.D. 2027-Jul-03 00:00:00.0000, 1.643818561113777E+07, -2.849924698400013E+08, -3.744292419883609E+04,
2461596.500000000, A.D. 2027-Jul-10 00:00:00.0000, 3.018708314682630E+07, -2.827050317416101E+08, -1.318804917159006E+06,
2461603.500000000, A.D. 2027-Jul-17 00:00:00.0000, 4.387220101810750E+07, -2.798206108615646E+08, -2.597376945529982E+06,
2461610.500000000, A.D. 2027-Jul-24 00:00:00.0000, 5.746359760165592E+07, -2.763386206253055E+08, -3.870397403927371E+06,
2461617.500000000, A.D. 2027-Jul-31 00:00:00.0000, 7.093097891140915E+07, -2.722603729739156E+08, -5.135062385783955E+06,
2461624.500000000, A.D. 2027-Aug-07 00:00:00.0000, 8.424385178420040E+07, -2.675891372385747E+08, -6.388539440167829E+06,
2461631.500000000, A.D. 2027-Aug-14 00:00:00.0000, 9.737168421581480E+07, -2.623301827204562E+08, -7.627981988815770E+06,
2461638.500000000, A.D. 2027-Aug-21 00:00:00.0000, 1.102840716024968E+08, -2.564908068325682E+08, -8.850544572675154E+06,
2461645.500000000, A.D. 2027-Aug-28 00:00:00.0000, 1.229509101926407E+08, -2.500803463588855E+08, -1.005339895547856E+07,
2461652.500000000, A.D. 2027-Sep-04 00:00:00.0000, 1.353425742181198E+08, -2.431101684103778E+08, -1.123375055972737E+07,
2461659.500000000, A.D. 2027-Sep-11 00:00:00.0000, 1.474300927906812E+08, -2.355936411845625E+08, -1.238885493164308E+07,
2461666.500000000, A.D. 2027-Sep-18 00:00:00.0000, 1.591853240738737E+08, -2.275460850213528E+08, -1.351603405923450E+07,
2461673.500000000, A.D. 2027-Sep-25 00:00:00.0000, 1.705811243059722E+08, -2.189847040955864E+08, -1.461269232450473E+07,
2461680.500000000, A.D. 2027-Oct-02 00:00:00.0000, 1.815915091403678E+08, -2.099284994080938E+08, -1.567633185008274E+07,
2461687.500000000, A.D. 2027-Oct-09 00:00:00.0000, 1.921918048368701E+08, -2.003981641837818E+08, -1.670456700761282E+07,
2461694.500000000, A.D. 2027-Oct-16 00:00:00.0000, 2.023587870722264E+08, -1.904159632189421E+08, -1.769513787931307E+07,
2461701.500000000, A.D. 2027-Oct-23 00:00:00.0000, 2.120708056051624E+08, -1.800055980141939E+08, -1.864592250051528E+07,
2461708.500000000, A.D. 2027-Oct-30 00:00:00.0000, 2.213078934774993E+08, -1.691920592145033E+08, -1.955494769919597E+07,
2461715.500000000, A.D. 2027-Nov-06 00:00:00.0000, 2.300518582594094E+08, -1.580014675963406E+08, -2.042039819826055E+07,
2461722.500000000, A.D. 2027-Nov-13 00:00:00.0000, 2.382863524131746E+08, -1.464609081955221E+08, -2.124062386909914E+07,
2461729.500000000, A.D. 2027-Nov-20 00:00:00.0000, 2.459969251483693E+08, -1.345982623477379E+08, -2.201414551959680E+07,
2461736.500000000, A.D. 2027-Nov-27 00:00:00.0000, 2.531710572774595E+08, -1.224420372685649E+08, -2.273965909919333E+07,
2461743.500000000, A.D. 2027-Dec-04 00:00:00.0000, 2.597981773395239E+08, -1.100211947896156E+08, -2.341603807460406E+07,
2461750.500000000, A.D. 2027-Dec-11 00:00:00.0000, 2.658696590933240E+08, -9.736498261465220E+07, -2.404233405275218E+07,
2461757.500000000, A.D. 2027-Dec-18 00:00:00.0000, 2.713788016206492E+08, -8.450277064161959E+07, -2.461777578187506E+07,
2461764.500000000, A.D. 2027-Dec-25 00:00:00.0000, 2.763207934239191E+08, -7.146389431238830E+07, -2.514176664773447E+07,
2461771.500000000, A.D. 2028-Jan-01 00:00:00.0000, 2.806926620172315E+08, -5.827750664844885E+07, -2.561388079155635E+07,
$$EOE